QIANFAN-1               
1 60379U 24140A   25202.11784556  .00000112  00000+0  15442-3 0  9996
2 60379  88.9843 314.2188 0015481 271.6076  88.3302 13.50952424 47811
QIANFAN-2               
1 60380U 24140B   25202.22074884  .00000112  00000+0  15534-3 0  9998
2 60380  88.9829 314.0676 0011250 238.3587 121.6467 13.50958923 47895
QIANFAN-3               
1 60381U 24140C   25202.37703367  .00000112  00000+0  15526-3 0  9991
2 60381  88.9822 314.1948 0012101 252.6984 107.2844 13.50957061 47822
QIANFAN-4               
1 60382U 24140D   25201.90799775  .00000099  00000+0  13428-3 0  9991
2 60382  88.9847 314.1044 0011391 242.5002 117.4992 13.50952406 47887
QIANFAN-5               
1 60383U 24140E   25202.40184004  .00000105  00000+0  14484-3 0  9992
2 60383  88.9821 314.2181 0013206 265.9088  94.0554 13.50955630 47812
QIANFAN-6               
1 60384U 24140F   25202.42228460  .00000079  00000+0  10427-3 0  9993
2 60384  88.9850 313.9239 0011402 247.4256 112.5688 13.50952332 48016
QIANFAN-7               
1 60385U 24140G   25202.42041953  .00000466  00000+0  18353-3 0  9990
2 60385  88.9850 310.6499 0016608 148.7305 211.4880 14.27482088 49802
QIANFAN-8               
1 60386U 24140H   25202.43063837  .00000108  00000+0  14816-3 0  9990
2 60386  88.9850 314.1578 0014807 251.3640 108.5904 13.50956255 47899
